IRIDIUM 7               
1 24793U 97020B   24222.56131791  .00001101  00000+0  37743-3 0  9997
2 24793  86.3975 307.4821 0002453  91.6913 268.4564 14.35334176427187
IRIDIUM 5               
1 24795U 97020D   24222.53699277  .00006729  00000+0  63000-3 0  9990
2 24795  86.3898 226.7069 0120995 171.4624 188.8702 14.88425937439005
IRIDIUM 4               
1 24796U 97020E   24222.46406219  .00001087  00000+0  36578-3 0  9997
2 24796  86.3968 304.6053 0002334  96.4354 263.7109 14.36262918427715
IRIDIUM 914             
1 24836U 97030A   24222.49071614  .00001323  00000+0  41293-3 0  9996
2 24836  86.3963 314.1225 0003147 126.6734 233.4755 14.40138042562258
IRIDIUM 16              
1 24841U 97030F   24222.61438109  .00001452  00000+0  47354-3 0  9999
2 24841  86.4079 336.1826 0003185  51.0065 309.1416 14.38026909422215
IRIDIUM 911             
1 24842U 97030G   24222.56767195  .00001819  00000+0  49717-3 0  9996
2 24842  86.4502 335.2813 0016076  61.4042 298.8776 14.46705723430013
IRIDIUM 17              
1 24870U 97034B   24222.47800139  .00001448  00000+0  48120-3 0  9992
2 24870  86.3991   5.8059 0001418  41.6546 318.4759 14.37115110418808
IRIDIUM 920             
1 24871U 97034C   24222.62707213  .00001350  00000+0  41509-3 0  9995
2 24871  86.4021 345.7073 0012693  38.7746 321.4362 14.40834665421706
